SENTINEL-6              
1 46984U 20086A   23263.85468838 -.00000060  00000+0  48020-5 0  9998
2 46984  66.0421  52.7506 0007848 268.2151  91.7965 12.80929837132203
